GLOBALSTAR M023         
1 25621U 99004A   24249.28863698  .00000016  00000+0  66665-3 0  9997
2 25621  52.0088 200.9482 0009720 217.8826 307.8587 12.62468138179745
GLOBALSTAR M040         
1 25622U 99004B   24249.31077229 -.00000070  00000+0  18676-3 0  9999
2 25622  51.9897 204.6105 0000882 105.8745  58.6873 12.61981804179288
GLOBALSTAR M036         
1 25623U 99004C   24249.24484244  .00000013  00000+0  13961-2 0  9998
2 25623  51.9953 271.3564 0010929 223.8077 239.0315 11.86582390145152
GLOBALSTAR M022         
1 25649U 99012A   24249.28995898 -.00000085  00000+0  16605-4 0  9991
2 25649  52.0075 345.3771 0001978 334.9030  59.0465 12.02487720142104
GLOBALSTAR M041         
1 25650U 99012B   24249.22217885 -.00000078  00000+0  96165-4 0  9991
2 25650  51.9992 218.3218 0002651 117.0393 243.0714 11.96660352144164
GLOBALSTAR M046         
1 25651U 99012C   24249.11775341  .00000020  00000+0  12034-2 0  9993
2 25651  52.0061 306.3871 0002280  52.7340 322.4742 12.09394989149176
GLOBALSTAR M037         
1 25652U 99012D   24249.48008623 -.00000058  00000+0  25706-3 0  9999
2 25652  52.0030 331.0900 0001383 269.0906 203.9010 12.62416566175316
